[{"OBJECT_NAME":"VSP RF C1","OBJECT_ID":"2024-043AQ","EPOCH":"2026-03-09T21:56:05.358624","MEAN_MOTION":15.29409663,"ECCENTRICITY":0.00093965,"INCLINATION":97.5441,"RA_OF_ASC_NODE":205.1792,"ARG_OF_PERICENTER":219.6172,"MEAN_ANOMALY":140.4382,"EPHEMERIS_TYPE":0,"CLASSIFICATION_TYPE":"U","NORAD_CAT_ID":59136,"ELEMENT_SET_NO":999,"REV_AT_EPOCH":11190,"BSTAR":0.00026222052,"MEAN_MOTION_DOT":7.409e-5,"MEAN_MOTION_DDOT":0},{"OBJECT_NAME":"STARLINK-35880","OBJECT_ID":"2025-303AA","EPOCH":"2026-03-09T01:45:38.939040","MEAN_MOTION":15.2758041,"ECCENTRICITY":0.00015817,"INCLINATION":43.0015,"RA_OF_ASC_NODE":313.9591,"ARG_OF_PERICENTER":259.0378,"MEAN_ANOMALY":101.0296,"EPHEMERIS_TYPE":0,"CLASSIFICATION_TYPE":"U","NORAD_CAT_ID":67187,"ELEMENT_SET_NO":999,"REV_AT_EPOCH":1264,"BSTAR":0.0012079101,"MEAN_MOTION_DOT":0.00033127,"MEAN_MOTION_DDOT":0}]
